HAWK-7B                 
1 56193U 23054R   26068.68903567  .00007955  00000+0  31011-3 0  9998
2 56193  97.2859 316.7839 0003661  61.5878 298.5730 15.26206341161848
STARLINK-31244          
1 58856U 24019D   26068.56188810 -.00002174  00000+0 -69451-4 0  9991
2 58856  43.0044 249.5832 0002101 278.4832  81.5781 15.27599347119069
